STARLINK-32731          
1 62493U 25003G   25025.91668981 -.01416505  00000+0 -19094-1 0  9993
2 62493  43.0009  77.7922 0001215 270.9993 301.7533 15.59852553  4266
STARLINK-32694          
1 62494U 25003H   25025.91668981 -.01416727  00000+0 -19097-1 0  9993
2 62494  43.0010  77.7971 0001245 271.6908 299.1447 15.59852741  4263
STARLINK-32708          
1 62495U 25003J   25025.91668981 -.01415464  00000+0 -19079-1 0  9991
2 62495  43.0010  77.7874 0001246 270.7471 303.9236 15.59851454  4150
STARLINK-32718          
1 62496U 25003K   25025.91668981 -.01421563  00000+0 -19167-1 0  9997
2 62496  43.0009  77.7829 0001339 271.0737 305.5125 15.59855326  4103
STARLINK-32729          
1 62497U 25003L   25025.91668981 -.01415823  00000+0 -19084-1 0  9998
2 62497  43.0010  77.7772 0001253 270.6493 307.8551 15.59851906  4267
STARLINK-32739          
1 62498U 25003M   25025.91668981 -.01416529  00000+0 -19094-1 0  9994
2 62498  43.0010  77.7723 0001250 270.7800 309.6406 15.59852732  4216
STARLINK-32714          
1 62499U 25003N   25025.91668981 -.01416312  00000+0 -19091-1 0  9992
2 62499  43.0010  77.7673 0001263 269.8574 312.4810 15.59852269  4263
STARLINK-32685          
1 62500U 25003P   25025.91668981 -.01416061  00000+0 -19087-1 0  9991
2 62500  43.0010  77.7625 0001247 271.0528 313.2015 15.59852729  4211
STARLINK-32691          
1 62501U 25003Q   25025.91668981 -.01416029  00000+0 -19087-1 0  9996
2 62501  43.0009  77.7572 0001212 269.4183 316.7537 15.59852387  4263
STARLINK-32788          
1 62502U 25003R   25025.91668981 -.01420217  00000+0 -19147-1 0  9998
2 62502  43.0009  77.7519 0001380 267.4118 320.6772 15.59854710  3993
STARLINK-32768          
1 62503U 25003S   25025.91668981 -.01415945  00000+0 -19085-1 0  9992
2 62503  43.0009  77.7474 0001331 270.8599 319.1461 15.59852352  4158
STARLINK-32792          
1 62504U 25003T   25025.91668981 -.01414240  00000+0 -19061-1 0  9994
2 62504  43.0008  77.7422 0001292 270.1502 321.7744 15.59850569  4111
STARLINK-32725          
1 62505U 25003U   25025.91668981 -.01840845  00000+0 -21428-1 0  9999
2 62505  43.0008  77.2564 0001358 277.2229 149.9127 15.63887859  4157
STARLINK-32681          
1 62506U 25003V   25025.91668981 -.00021112  00000+0 -10336-3 0  9995
2 62506  42.9996  75.7740 0001418 273.2019  21.1556 15.80875773  4261
STARLINK-32679          
1 62507U 25003W   25025.91668981 -.01452665  00000+0 -14886-1 0  9990
2 62507  43.0008  77.0366 0001240 277.5761 237.2724 15.66822779  4260
STARLINK-32749          
1 62508U 25003X   25025.91668981 -.01415434  00000+0 -19078-1 0  9992
2 62508  43.0010  77.7327 0001291 269.8488 325.9090 15.59851814  4157
STARLINK-32744          
1 62509U 25003Y   25025.91668981 -.01422438  00000+0 -19179-1 0  9997
2 62509  43.0009  77.7278 0001396 268.9756 328.6975 15.59856353  4161
STARLINK-32701          
1 62510U 25003Z   25025.91668981 -.01414105  00000+0 -19059-1 0  9998
2 62510  43.0009  77.7234 0001282 269.4941 330.0986 15.59850637  4158
STARLINK-11452 [DTC]    
1 62511U 25004A   25025.91668981  .00030485  00000+0  17757-3 0  9997
2 62511  42.9992  10.5831 0001247 249.8739 160.9492 15.77836947  3984
STARLINK-11443 [DTC]    
1 62512U 25004B   25025.91668981  .00000255  00000+0  43357-5 0  9997
2 62512  43.0001  10.5142 0001794 263.5716 174.9983 15.77852176  3980
STARLINK-11440 [DTC]    
1 62513U 25004C   25025.91668981 -.00100564  00000+0 -57812-3 0  9993
2 62513  43.0018  10.4455 0001424 262.5664 203.6046 15.77998952  3990
STARLINK-11514 [DTC]    
1 62514U 25004D   25025.91668981 -.00335705  00000+0 -19825-2 0  9992
2 62514  43.0043  10.3761 0001905 268.6830 225.2606 15.78082893  3995
STARLINK-11508 [DTC]    
1 62515U 25004E   25025.91668981 -.01023994  00000+0 -57815-2 0  9999
2 62515  43.0060  10.3169 0001772 272.5280 245.0807 15.80836454  3998
STARLINK-11510 [DTC]    
1 62516U 25004F   25025.94997927 -.00098299  00000+0 -43192-3 0  9991
2 62516  43.0057  10.0818 0003417 256.3240 103.7252 15.83772088  3064
STARLINK-11512 [DTC]    
1 62517U 25004G   25025.94892165  .00135157  00000+0  56513-3 0  9994
2 62517  43.0059  10.0728 0001741 224.3618 135.7115 15.84463270  3063
STARLINK-11450 [DTC]    
1 62518U 25004H   25025.94815598  .00063690  00000+0  26974-3 0  9990
2 62518  43.0060  10.0667 0001948 291.5849  68.4816 15.84462060  3065
STARLINK-11507 [DTC]    
1 62519U 25004J   25025.94717179  .00025990  00000+0  11214-3 0  9999
2 62519  43.0057  10.0574 0001505 275.5848  84.4853 15.84424802  3060
STARLINK-11482 [DTC]    
1 62520U 25004K   25025.94626753  .00033859  00000+0  14524-3 0  9998
2 62520  43.0055  10.0499 0001466 261.6206  98.4500 15.84426492  3067
STARLINK-11528 [DTC]    
1 62521U 25004L   25025.91668981 -.00844898  00000+0 -46410-2 0  9998
2 62521  43.0047   9.9014 0001871 273.3759  48.3464 15.80962600  3988
STARLINK-11516 [DTC]    
1 62522U 25004M   25025.88140904  .00132942  00000+0  55609-3 0  9994
2 62522  43.0058  10.4227 0001774 222.1263 137.9474 15.84461740  3055
